STARLINK-31142          
1 58779U 24011Q   25210.61429651  .00002069  00000+0  81980-4 0  9994
2 58779  53.1599 330.0261 0001578  88.0983 272.0198 15.30199728 86112
STARLINK-31099          
1 58781U 24011S   25210.60429144  .00001254  00000+0  55752-4 0  9996
2 58781  53.1623 329.9687 0001301  95.2060 264.9089 15.29369272 86112
STARLINK-31060          
1 58782U 24011T   25210.27368611  .00000640  00000+0  25993-4 0  9993
2 58782  53.1589 204.8119 0001118  95.9589 264.1543 15.39616518 87863
STARLINK-31047          
1 58783U 24011U   25210.58042875  .00000945  00000+0  44049-4 0  9990
2 58783  53.1618 314.4534 0001235  97.9379 262.1762 15.30194184 86338
STARLINK-31039          
1 58784U 24011V   25210.91668981 -.00011375  00000+0 -37257-3 0  9993
2 58784  53.1608 328.5210 0001105  83.4385 195.7371 15.30196512  5816
STARLINK-31034          
1 58785U 24011W   25210.33171225  .00000895  00000+0  42348-4 0  9991
2 58785  53.1590 228.7884 0001191  77.8850 282.2284 15.30197965 87531
STARLINK-31024          
1 58786U 24011X   25210.60954754  .00000271  00000+0  21292-4 0  9991
2 58786  53.1615 327.8832 0001293 113.0045 247.1092 15.30197674 86146
STARLINK-31189          
1 58787U 24012A   25210.41731382  .00007678  00000+0  28856-3 0  9992
2 58787  43.0008 345.8138 0001282 280.4097  79.6611 15.27544183 87091
STARLINK-31162          
1 58791U 24012E   25210.69427131  .00002472  00000+0  99308-4 0  9999
2 58791  43.0051 344.4523 0001985 282.1085  77.9545 15.27591616 87138
STARLINK-31192          
1 58794U 24012H   25210.65837953  .00003542  00000+0  14515-3 0  9990
2 58794  43.0015 344.1671 0001878 268.1224  91.9412 15.25919154 87130
STARLINK-31161          
1 58795U 24012J   25210.82245743  .00000943  00000+0  43754-4 0  9990
2 58795  43.0010 343.6922 0001099 271.4905  88.5821 15.27602974 87167
STARLINK-31195          
1 58796U 24012K   25210.82774857 -.00000963  00000+0 -26963-4 0  9991
2 58796  42.9997 343.7326 0000522 336.7430  23.3398 15.25922424 87166
STARLINK-31193          
1 58797U 24012L   25210.10541704 -.00081726  00000+0 -31116-2 0  9996
2 58797  43.0025 347.7639 0001053 237.5034 122.5715 15.26306462 87041
