[{"OBJECT_NAME":"STARLINK-31142","OBJECT_ID":"2024-011Q","EPOCH":"2025-07-29T14:44:35.218464","MEAN_MOTION":15.30199728,"ECCENTRICITY":0.0001578,"INCLINATION":53.1599,"RA_OF_ASC_NODE":330.0261,"ARG_OF_PERICENTER":88.0983,"MEAN_ANOMALY":272.0198,"EPHEMERIS_TYPE":0,"CLASSIFICATION_TYPE":"U","NORAD_CAT_ID":58779,"ELEMENT_SET_NO":999,"REV_AT_EPOCH":8611,"BSTAR":8.198e-5,"MEAN_MOTION_DOT":2.069e-5,"MEAN_MOTION_DDOT":0},{"OBJECT_NAME":"STARLINK-31099","OBJECT_ID":"2024-011S","EPOCH":"2025-07-29T14:30:10.780416","MEAN_MOTION":15.29369272,"ECCENTRICITY":0.0001301,"INCLINATION":53.1623,"RA_OF_ASC_NODE":329.9687,"ARG_OF_PERICENTER":95.206,"MEAN_ANOMALY":264.9089,"EPHEMERIS_TYPE":0,"CLASSIFICATION_TYPE":"U","NORAD_CAT_ID":58781,"ELEMENT_SET_NO":999,"REV_AT_EPOCH":8611,"BSTAR":5.5752e-5,"MEAN_MOTION_DOT":1.254e-5,"MEAN_MOTION_DDOT":0},{"OBJECT_NAME":"STARLINK-31060","OBJECT_ID":"2024-011T","EPOCH":"2025-07-29T06:34:06.479904","MEAN_MOTION":15.39616518,"ECCENTRICITY":0.0001118,"INCLINATION":53.1589,"RA_OF_ASC_NODE":204.8119,"ARG_OF_PERICENTER":95.9589,"MEAN_ANOMALY":264.1543,"EPHEMERIS_TYPE":0,"CLASSIFICATION_TYPE":"U","NORAD_CAT_ID":58782,"ELEMENT_SET_NO":999,"REV_AT_EPOCH":8786,"BSTAR":2.5993e-5,"MEAN_MOTION_DOT":6.4e-6,"MEAN_MOTION_DDOT":0},{"OBJECT_NAME":"STARLINK-31047","OBJECT_ID":"2024-011U","EPOCH":"2025-07-29T13:55:49.044000","MEAN_MOTION":15.30194184,"ECCENTRICITY":0.0001235,"INCLINATION":53.1618,"RA_OF_ASC_NODE":314.4534,"ARG_OF_PERICENTER":97.9379,"MEAN_ANOMALY":262.1762,"EPHEMERIS_TYPE":0,"CLASSIFICATION_TYPE":"U","NORAD_CAT_ID":58783,"ELEMENT_SET_NO":999,"REV_AT_EPOCH":8633,"BSTAR":4.4049e-5,"MEAN_MOTION_DOT":9.45e-6,"MEAN_MOTION_DDOT":0},{"OBJECT_NAME":"STARLINK-31039","OBJECT_ID":"2024-011V","EPOCH":"2025-07-29T22:00:01.999584","MEAN_MOTION":15.30196512,"ECCENTRICITY":0.0001105,"INCLINATION":53.1608,"RA_OF_ASC_NODE":328.521,"ARG_OF_PERICENTER":83.4385,"MEAN_ANOMALY":195.7371,"EPHEMERIS_TYPE":0,"CLASSIFICATION_TYPE":"U","NORAD_CAT_ID":58784,"ELEMENT_SET_NO":999,"REV_AT_EPOCH":8603,"BSTAR":-0.00037257,"MEAN_MOTION_DOT":-0.00011375,"MEAN_MOTION_DDOT":0},{"OBJECT_NAME":"STARLINK-31034","OBJECT_ID":"2024-011W","EPOCH":"2025-07-29T07:57:39.938400","MEAN_MOTION":15.30197965,"ECCENTRICITY":0.0001191,"INCLINATION":53.159,"RA_OF_ASC_NODE":228.7884,"ARG_OF_PERICENTER":77.885,"MEAN_ANOMALY":282.2284,"EPHEMERIS_TYPE":0,"CLASSIFICATION_TYPE":"U","NORAD_CAT_ID":58785,"ELEMENT_SET_NO":999,"REV_AT_EPOCH":8753,"BSTAR":4.2348e-5,"MEAN_MOTION_DOT":8.95e-6,"MEAN_MOTION_DDOT":0},{"OBJECT_NAME":"STARLINK-31024","OBJECT_ID":"2024-011X","EPOCH":"2025-07-29T14:37:44.907456","MEAN_MOTION":15.30197674,"ECCENTRICITY":0.0001293,"INCLINATION":53.1615,"RA_OF_ASC_NODE":327.8832,"ARG_OF_PERICENTER":113.0045,"MEAN_ANOMALY":247.1092,"EPHEMERIS_TYPE":0,"CLASSIFICATION_TYPE":"U","NORAD_CAT_ID":58786,"ELEMENT_SET_NO":999,"REV_AT_EPOCH":8614,"BSTAR":2.1292e-5,"MEAN_MOTION_DOT":2.71e-6,"MEAN_MOTION_DDOT":0},{"OBJECT_NAME":"STARLINK-31189","OBJECT_ID":"2024-012A","EPOCH":"2025-07-29T10:00:55.914048","MEAN_MOTION":15.27544183,"ECCENTRICITY":0.0001282,"INCLINATION":43.0008,"RA_OF_ASC_NODE":345.8138,"ARG_OF_PERICENTER":280.4097,"MEAN_ANOMALY":79.6611,"EPHEMERIS_TYPE":0,"CLASSIFICATION_TYPE":"U","NORAD_CAT_ID":58787,"ELEMENT_SET_NO":999,"REV_AT_EPOCH":8709,"BSTAR":0.00028856,"MEAN_MOTION_DOT":7.678e-5,"MEAN_MOTION_DDOT":0},{"OBJECT_NAME":"STARLINK-31162","OBJECT_ID":"2024-012E","EPOCH":"2025-07-29T16:39:45.041184","MEAN_MOTION":15.27591616,"ECCENTRICITY":0.0001985,"INCLINATION":43.0051,"RA_OF_ASC_NODE":344.4523,"ARG_OF_PERICENTER":282.1085,"MEAN_ANOMALY":77.9545,"EPHEMERIS_TYPE":0,"CLASSIFICATION_TYPE":"U","NORAD_CAT_ID":58791,"ELEMENT_SET_NO":999,"REV_AT_EPOCH":8715,"BSTAR":9.9308e-5,"MEAN_MOTION_DOT":2.472e-5,"MEAN_MOTION_DDOT":0},{"OBJECT_NAME":"STARLINK-31192","OBJECT_ID":"2024-012H","EPOCH":"2025-07-29T15:48:03.991392","MEAN_MOTION":15.25919154,"ECCENTRICITY":0.0001878,"INCLINATION":43.0015,"RA_OF_ASC_NODE":344.1671,"ARG_OF_PERICENTER":268.1224,"MEAN_ANOMALY":91.9412,"EPHEMERIS_TYPE":0,"CLASSIFICATION_TYPE":"U","NORAD_CAT_ID":58794,"ELEMENT_SET_NO":999,"REV_AT_EPOCH":8699,"BSTAR":0.00014515,"MEAN_MOTION_DOT":3.542e-5,"MEAN_MOTION_DDOT":0},{"OBJECT_NAME":"STARLINK-31161","OBJECT_ID":"2024-012J","EPOCH":"2025-07-29T19:44:20.321952","MEAN_MOTION":15.27602974,"ECCENTRICITY":0.0001099,"INCLINATION":43.001,"RA_OF_ASC_NODE":343.6922,"ARG_OF_PERICENTER":271.4905,"MEAN_ANOMALY":88.5821,"EPHEMERIS_TYPE":0,"CLASSIFICATION_TYPE":"U","NORAD_CAT_ID":58795,"ELEMENT_SET_NO":999,"REV_AT_EPOCH":8716,"BSTAR":4.3754e-5,"MEAN_MOTION_DOT":9.43e-6,"MEAN_MOTION_DDOT":0},{"OBJECT_NAME":"STARLINK-31195","OBJECT_ID":"2024-012K","EPOCH":"2025-07-29T19:51:57.476448","MEAN_MOTION":15.25922424,"ECCENTRICITY":5.22e-5,"INCLINATION":42.9997,"RA_OF_ASC_NODE":343.7326,"ARG_OF_PERICENTER":336.743,"MEAN_ANOMALY":23.3398,"EPHEMERIS_TYPE":0,"CLASSIFICATION_TYPE":"U","NORAD_CAT_ID":58796,"ELEMENT_SET_NO":999,"REV_AT_EPOCH":8716,"BSTAR":-2.6963e-5,"MEAN_MOTION_DOT":-9.63e-6,"MEAN_MOTION_DDOT":0},{"OBJECT_NAME":"STARLINK-31193","OBJECT_ID":"2024-012L","EPOCH":"2025-07-29T02:31:48.032256","MEAN_MOTION":15.26306462,"ECCENTRICITY":0.0001053,"INCLINATION":43.0025,"RA_OF_ASC_NODE":347.7639,"ARG_OF_PERICENTER":237.5034,"MEAN_ANOMALY":122.5715,"EPHEMERIS_TYPE":0,"CLASSIFICATION_TYPE":"U","NORAD_CAT_ID":58797,"ELEMENT_SET_NO":999,"REV_AT_EPOCH":8704,"BSTAR":-0.0031116,"MEAN_MOTION_DOT":-0.00081726,"MEAN_MOTION_DDOT":0}]
